{"type": "FeatureCollection", "features": [ {"type": "Feature", "properties": {"norad_id": 66052, "name": "HRC MONOBLOCK CAMERA", "group": "stations", "lat": 21.273487617765163, "lon": -45.89740907159961, "alt_km": 400.66270708342654, "timestamp": "2025-12-10T14:53:35.962143+00:00", "meta": {"OBJECT_NAME": "HRC MONOBLOCK CAMERA", "OBJECT_ID": "1998-067XR", "EPOCH": "2025-12-10T01:53:33.064224", "MEAN_MOTION": 15.53848796, "ECCENTRICITY": 0.00036764, "INCLINATION": 51.6294, "RA_OF_ASC_NODE": 154.7721, "ARG_OF_PERICENTER": 173.0963, "MEAN_ANOMALY": 187.0078, "EPHEMERIS_TYPE": 0, "CLASSIFICATION_TYPE": "U", "NORAD_CAT_ID": 66052, "ELEMENT_SET_NO": 999, "REV_AT_EPOCH": 842, "BSTAR": 0.00070942813, "MEAN_MOTION_DOT": 0.00046287, "MEAN_MOTION_DDOT": 0}, "tle": {"line1": "1 66052U 98067XR  25344.07885491  .00046287  00000+0  70943-3 0  9991", "line2": "2 66052  51.6294 154.7721 0003676 173.0963 187.0078 15.53848796  8427"}}, "geometry": {"type": "Point", "coordinates": [-45.89740907159961, 21.273487617765163]}}, {"type": "Feature", "properties": {"norad_id": 66174, "name": "HTV-X1", "group": "stations", "lat": 50.466999701261365, "lon": -133.29021372166147, "alt_km": 413.3080677250664, "timestamp": "2025-12-10T14:53:35.962161+00:00", "meta": {"OBJECT_NAME": "HTV-X1", "OBJECT_ID": "2025-241A", "EPOCH": "2025-12-10T03:42:55.481184", "MEAN_MOTION": 15.49465664, "ECCENTRICITY": 0.0003395, "INCLINATION": 51.6306, "RA_OF_ASC_NODE": 155.2782, "ARG_OF_PERICENTER": 228.7876, "MEAN_ANOMALY": 131.282, "EPHEMERIS_TYPE": 0, "CLASSIFICATION_TYPE": "U", "NORAD_CAT_ID": 66174, "ELEMENT_SET_NO": 999, "REV_AT_EPOCH": 51, "BSTAR": 0.00027248017, "MEAN_MOTION_DOT": 0.00014837, "MEAN_MOTION_DDOT": 0}, "tle": {"line1": "1 66174U 25241A   25344.15480881  .00014837  00000+0  27248-3 0  9999", "line2": "2 66174  51.6306 155.2782 0003395 228.7876 131.2820 15.49465664   510"}}, "geometry": {"type": "Point", "coordinates": [-133.29021372166147, 50.466999701261365]}}, {"type": "Feature", "properties": {"norad_id": 66515, "name": "SZ-21 MODULE", "group": "stations", "lat": -3.927580246975046, "lon": 24.513545079903412, "alt_km": 382.1155930769173, "timestamp": "2025-12-10T14:53:35.962175+00:00", "meta": {"OBJECT_NAME": "SZ-21 MODULE", "OBJECT_ID": "2025-246C", "EPOCH": "2025-12-10T04:10:45.552576", "MEAN_MOTION": 15.62287681, "ECCENTRICITY": 0.00063037, "INCLINATION": 41.4772, "RA_OF_ASC_NODE": 31.6946, "ARG_OF_PERICENTER": 246.4394, "MEAN_ANOMALY": 113.5783, "EPHEMERIS_TYPE": 0, "CLASSIFICATION_TYPE": "U", "NORAD_CAT_ID": 66515, "ELEMENT_SET_NO": 999, "REV_AT_EPOCH": 404, "BSTAR": 0.00037412721, "MEAN_MOTION_DOT": 0.00033821, "MEAN_MOTION_DDOT": 0}, "tle": {"line1": "1 66515U 25246C   25344.17413834  .00033821  00000+0  37413-3 0  9998", "line2": "2 66515  41.4772  31.6946 0006303 246.4394 113.5783 15.62287681  4045"}}, "geometry": {"type": "Point", "coordinates": [24.513545079903412, -3.927580246975046]}}, {"type": "Feature", "properties": {"norad_id": 66645, "name": "SHENZHOU-22", "group": "stations", "lat": 38.135139777027916, "lon": 146.82101169683693, "alt_km": 385.01734927803227, "timestamp": "2025-12-10T14:53:35.962190+00:00", "meta": {"OBJECT_NAME": "SHENZHOU-22", "OBJECT_ID": "2025-272A", "EPOCH": "2025-12-10T06:43:57.761760", "MEAN_MOTION": 15.59014677, "ECCENTRICITY": 0.00088021, "INCLINATION": 41.4682, "RA_OF_ASC_NODE": 31.6356, "ARG_OF_PERICENTER": 10.5172, "MEAN_ANOMALY": 349.5849, "EPHEMERIS_TYPE": 0, "CLASSIFICATION_TYPE": "U", "NORAD_CAT_ID": 66645, "ELEMENT_SET_NO": 999, "REV_AT_EPOCH": 26357, "BSTAR": 0.00043406543, "MEAN_MOTION_DOT": 0.00034646, "MEAN_MOTION_DDOT": 0}, "tle": {"line1": "1 66645U 25272A   25344.28052965  .00034646  00000+0  43407-3 0  9993", "line2": "2 66645  41.4682  31.6356 0008802  10.5172 349.5849 15.59014677263572"}}, "geometry": {"type": "Point", "coordinates": [146.82101169683693, 38.135139777027916]}}, {"type": "Feature", "properties": {"norad_id": 66664, "name": "SOYUZ-MS 28", "group": "stations", "lat": 50.46700039672963, "lon": -133.29020886774288, "alt_km": 413.3080675665051, "timestamp": "2025-12-10T14:53:35.962210+00:00", "meta": {"OBJECT_NAME": "SOYUZ-MS 28", "OBJECT_ID": "2025-275A", "EPOCH": "2025-12-10T03:42:55.481184", "MEAN_MOTION": 15.49465664, "ECCENTRICITY": 0.0003395, "INCLINATION": 51.6306, "RA_OF_ASC_NODE": 155.2782, "ARG_OF_PERICENTER": 228.7876, "MEAN_ANOMALY": 131.282, "EPHEMERIS_TYPE": 0, "CLASSIFICATION_TYPE": "U", "NORAD_CAT_ID": 66664, "ELEMENT_SET_NO": 999, "REV_AT_EPOCH": 128, "BSTAR": 0.00027248017, "MEAN_MOTION_DOT": 0.00014837, "MEAN_MOTION_DDOT": 0}, "tle": {"line1": "1 66664U 25275A   25344.15480881  .00014837  00000+0  27248-3 0  9990", "line2": "2 66664  51.6306 155.2782 0003395 228.7876 131.2820 15.49465664  1289"}}, "geometry": {"type": "Point", "coordinates": [-133.29020886774288, 50.46700039672963]}}, {"type": "Feature", "properties": {"norad_id": 66906, "name": "1998-067XS", "group": "stations", "lat": 50.09183975562173, "lon": -98.39059242711568, "alt_km": 408.72958582409865, "timestamp": "2025-12-10T14:53:35.962220+00:00", "meta": {"OBJECT_NAME": "1998-067XS", "OBJECT_ID": "1998-067XS", "EPOCH": "2025-12-10T00:31:58.659744", "MEAN_MOTION": 15.50350034, "ECCENTRICITY": 0.0003912, "INCLINATION": 51.6303, "RA_OF_ASC_NODE": 155.8936, "ARG_OF_PERICENTER": 190.7132, "MEAN_ANOMALY": 169.3774, "EPHEMERIS_TYPE": 0, "CLASSIFICATION_TYPE": "U", "NORAD_CAT_ID": 66906, "ELEMENT_SET_NO": 999, "REV_AT_EPOCH": 119, "BSTAR": 0.00063423893, "MEAN_MOTION_DOT": 0.00036365, "MEAN_MOTION_DDOT": 0}, "tle": {"line1": "1 66906U 98067XS  25344.02220671  .00036365  00000+0  63424-3 0  9999", "line2": "2 66906  51.6303 155.8936 0003912 190.7132 169.3774 15.50350034  1196"}}, "geometry": {"type": "Point", "coordinates": [-98.39059242711568, 50.09183975562173]}}, {"type": "Feature", "properties": {"norad_id": 66907, "name": "1998-067XT", "group": "stations", "lat": 46.96618497090969, "lon": -85.15590797919168, "alt_km": 407.91170978349237, "timestamp": "2025-12-10T14:53:35.962229+00:00", "meta": {"OBJECT_NAME": "1998-067XT", "OBJECT_ID": "1998-067XT", "EPOCH": "2025-12-09T12:07:37.114752", "MEAN_MOTION": 15.50864429, "ECCENTRICITY": 0.00048036, "INCLINATION": 51.6307, "RA_OF_ASC_NODE": 158.4423, "ARG_OF_PERICENTER": 208.5081, "MEAN_ANOMALY": 151.5646, "EPHEMERIS_TYPE": 0, "CLASSIFICATION_TYPE": "U", "NORAD_CAT_ID": 66907, "ELEMENT_SET_NO": 999, "REV_AT_EPOCH": 111, "BSTAR": 0.0012921241, "MEAN_MOTION_DOT": 0.00076342, "MEAN_MOTION_DDOT": 0}, "tle": {"line1": "1 66907U 98067XT  25343.50529068  .00076342  00000+0  12921-2 0  9998", "line2": "2 66907  51.6307 158.4423 0004803 208.5081 151.5646 15.50864429  1113"}}, "geometry": {"type": "Point", "coordinates": [-85.15590797919168, 46.96618497090969]}}, {"type": "Feature", "properties": {"norad_id": 66908, "name": "1998-067XU", "group": "stations", "lat": 46.39427141390186, "lon": -83.38351611101514, "alt_km": 407.70398319703054, "timestamp": "2025-12-10T14:53:35.962239+00:00", "meta": {"OBJECT_NAME": "1998-067XU", "OBJECT_ID": "1998-067XU", "EPOCH": "2025-12-09T22:56:49.308000", "MEAN_MOTION": 15.50986187, "ECCENTRICITY": 0.00049973, "INCLINATION": 51.6304, "RA_OF_ASC_NODE": 156.202, "ARG_OF_PERICENTER": 209.1255, "MEAN_ANOMALY": 150.9456, "EPHEMERIS_TYPE": 0, "CLASSIFICATION_TYPE": "U", "NORAD_CAT_ID": 66908, "ELEMENT_SET_NO": 999, "REV_AT_EPOCH": 118, "BSTAR": 0.0013760637, "MEAN_MOTION_DOT": 0.00081745, "MEAN_MOTION_DDOT": 0}, "tle": {"line1": "1 66908U 98067XU  25343.95612625  .00081745  00000+0  13761-2 0  9996", "line2": "2 66908  51.6304 156.2020 0004997 209.1255 150.9456 15.50986187  1189"}}, "geometry": {"type": "Point", "coordinates": [-83.38351611101514, 46.39427141390186]}}, {"type": "Feature", "properties": {"norad_id": 66909, "name": "SILVERSAT", "group": "stations", "lat": 45.818104664413, "lon": -81.71199829424522, "alt_km": 407.5040534866512, "timestamp": "2025-12-10T14:53:35.962248+00:00", "meta": {"OBJECT_NAME": "SILVERSAT", "OBJECT_ID": "1998-067XV", "EPOCH": "2025-12-09T19:50:59.696448", "MEAN_MOTION": 15.51056405, "ECCENTRICITY": 0.00048767, "INCLINATION": 51.6304, "RA_OF_ASC_NODE": 156.8402, "ARG_OF_PERICENTER": 210.6196, "MEAN_ANOMALY": 149.451, "EPHEMERIS_TYPE": 0, "CLASSIFICATION_TYPE": "U", "NORAD_CAT_ID": 66909, "ELEMENT_SET_NO": 999, "REV_AT_EPOCH": 116, "BSTAR": 0.001540003, "MEAN_MOTION_DOT": 0.00091886, "MEAN_MOTION_DDOT": 0}, "tle": {"line1": "1 66909U 98067XV  25343.82707982  .00091886  00000+0  15400-2 0  9993", "line2": "2 66909  51.6304 156.8402 0004876 210.6196 149.4510 15.51056405  1161"}}, "geometry": {"type": "Point", "coordinates": [-81.71199829424522, 45.818104664413]}}, {"type": "Feature", "properties": {"norad_id": 66910, "name": "1998-067XW", "group": "stations", "lat": 42.20021932456747, "lon": -73.03866960671343, "alt_km": 406.06218608024574, "timestamp": "2025-12-10T14:53:35.962296+00:00", "meta": {"OBJECT_NAME": "1998-067XW", "OBJECT_ID": "1998-067XW", "EPOCH": "2025-12-09T18:16:30.089568", "MEAN_MOTION": 15.51233501, "ECCENTRICITY": 0.00057247, "INCLINATION": 51.6303, "RA_OF_ASC_NODE": 157.1524, "ARG_OF_PERICENTER": 193.6821, "MEAN_ANOMALY": 166.4014, "EPHEMERIS_TYPE": 0, "CLASSIFICATION_TYPE": "U", "NORAD_CAT_ID": 66910, "ELEMENT_SET_NO": 999, "REV_AT_EPOCH": 115, "BSTAR": 0.001286346, "MEAN_MOTION_DOT": 0.00077029, "MEAN_MOTION_DDOT": 0}, "tle": {"line1": "1 66910U 98067XW  25343.76145937  .00077029  00000+0  12863-2 0  9997", "line2": "2 66910  51.6303 157.1524 0005724 193.6821 166.4014 15.51233501  1150"}}, "geometry": {"type": "Point", "coordinates": [-73.03866960671343, 42.20021932456747]}}]}